#aV2014  9 19  0  0  0.00000000     288 DD+AD WGS84 FIT  NGA
## 1810 432000.00000000   300.00000000 56919 0.0000000000000
+   31     1  2  4  5  6  7  8  9 10 11 12 13 14 15 16 17 18
+         19 20 21 22 23 24 25 26 27 28 29 30 31 32  0  0  0
+          0  0  0  0  0  0  0  0  0  0  0  0  0  0  0  0  0
+          0  0  0  0  0  0  0  0  0  0  0  0  0  0  0  0  0
+          0  0  0  0  0  0  0  0  0  0  0  0  0  0  0  0  0
++         2  2  2  2  2  2  2  2  2  2  2  2  2  2  2  2  2
++         2  2  2  2  2  2  2  2  2  2  2  2  2  2  0  0  0
++         0  0  0  0  0  0  0  0  0  0  0  0  0  0  0  0  0
++         0  0  0  0  0  0  0  0  0  0  0  0  0  0  0  0  0
++         0  0  0  0  0  0  0  0  0  0  0  0  0  0  0  0  0
%c cc cc ccc ccc cccc cccc cccc cccc ccccc ccccc ccccc ccccc
%c cc cc ccc ccc cccc cccc cccc cccc ccccc ccccc ccccc ccccc
%f  0.0000000  0.000000000  0.00000000000  0.000000000000000
%f  0.0000000  0.000000000  0.00000000000  0.000000000000000
%i    0    0    0    0      0      0      0      0         0
%i    0    0    0    0      0      0      0      0         0
/*      NGA, ST. LOUIS,MO.                                  
/*   EPHEMERIS COMPUTED FROM  1 DAYS OF DATA                
/*   EPOCHA SMOOTHER                                       
/* CCCCCCCCCCCCCCCCCCCCCCCCCCCCCCCCCCCCCCCCCCCCCCCCCCCCCCCCC
*  2014  9 19 18 10  0.00000000
P  1  20696.927149   9864.443298  13495.098895     21.421704                    
V  1   9480.063061  14446.130748 -24860.548054      0.005186                    
P  2 -12206.949355 -22504.025085   8260.834217    519.384568                    
V  2   8730.344357   5546.190920  28626.298205      0.022111                    
P  4  19731.570090   3400.187033  17226.796525     -0.832653                    
V  4  13311.348929  18258.851321 -18255.634566     -0.002825                    
P  5  -4682.638312 -20885.069437 -15656.367515   -338.024854                    
V  5   8722.765429 -18052.631253  21700.385692      0.038263                    
P  6   -992.847378 -19908.497961  17544.029034     -4.399861                    
V  6  15813.593107  15811.671625  18808.121606      0.010614                    
P  7  16248.708879  -2544.219951 -20841.963207    393.390142                    
V  7  16309.890825  20961.491748   9764.360470      0.041595                    
P  8  17541.044414   3525.615985 -19635.556120     15.626759                    
V  8  13357.691021  21245.941792  14981.710176      0.001490                    
P  9  25354.586184  -7207.060186  -3344.366240     18.587876                    
V  9   4704.534623   1979.778041  31330.096538     -0.025984                    
P 10   8007.512089 -25051.915264  -1470.621358   -142.569874                    
V 10   4048.001684    -95.214100  31539.197890     -0.014549                    
P 11  23836.171388  11436.325030   2885.834731   -522.464390                    
V 11   1231.653889   6329.427996 -29736.192701     -0.029429                    
P 12 -13278.115912  -6028.251167  22122.887157    233.102631                    
V 12  10420.801076 -26203.136749   -677.144903      0.026501                    
P 13  26138.498790  -4280.683294  -3344.820595    -43.159351                    
V 13   4178.397597   1807.604654  31591.148879     -0.036935                    
P 14 -13837.064140  13976.867253  18012.230523    133.358148                    
V 14 -22469.754752    963.282889 -18394.358914     -0.036906                    
P 15 -22409.751959  -5160.036376 -13608.077304   -203.796459                    
V 15  16117.919098  -6336.316438 -23942.908068     -0.022265                    
P 16   2953.358487  20623.988060 -16312.753975   -193.788281                    
V 16  -9416.069557  18487.320911  22088.231635      0.025481                    
P 17  14098.052608 -14211.060486  17603.705136   -125.018081                    
V 17  21906.096056  -1522.476074 -19282.305803     -0.026524                    
P 18 -15806.776733  16399.176304 -12932.142227    345.936733                    
V 18   2296.595146 -17576.639423 -24548.902213      0.025622                    
P 19  19235.012832   9433.827307 -16147.446991   -479.491242                    
V 19 -19792.744099   3279.369565 -21446.014867     -0.018920                    
P 20  16310.455314   -478.255953  20756.239844    235.750866                    
V 20  -6518.050235  26153.959814   5741.429330      0.044021                    
P 21 -13207.841149   8363.516759 -20846.915863   -384.892477                    
V 21 -18355.842198 -21253.347656   2586.868505     -0.020723                    
P 22  -9661.586875  24574.209886  -1649.955689    269.371569                    
V 22  -3148.880541  -3574.247185 -30918.460274      0.036407                    
P 23  25922.920836    345.835916   6862.153384    -53.572442                    
V 23  -7865.131055   4064.807067  29640.887291     -0.028898                    
P 24 -20926.598462 -12762.064346  10344.086947    -35.452646                    
V 24  -6756.048634 -11546.288288 -27762.710883     -0.005854                    
P 25 -16453.883906   7719.748852  19240.906252     21.003426                    
V 25   6989.372321 -23616.933250  15518.182061     -0.010750                    
P 26 -11403.814803 -13197.074250 -20768.280315    -60.507566                    
V 26  24646.800188  -2760.355774 -11896.541382     -0.129881                    
P 27   8630.325797  13386.891237 -21281.193093     15.759542                    
V 27 -26378.848768   5603.424858  -7111.500772      0.030209                    
P 28  13083.529447 -22366.583669  -4895.536480    385.482372                    
V 28   -815.856078   7269.085634 -31619.279864      0.025768                    
P 29 -25910.783541   5164.204441  -2473.893615    561.409520                    
V 29  -3482.154090  -2100.154341  31784.532499      0.024564                    
P 30   8793.352126 -13273.621372 -21251.980155    -63.819210                    
V 30  16438.816494  21428.824407  -6631.373600     -0.043676                    
P 31   2082.450081  20537.296007  16683.544850    331.530284                    
V 31 -14428.707526 -15322.822827  21156.644620     -0.004603                    
P 32   9224.149630  14844.754791  20174.668623   -336.483014                    
V 32 -11243.143414  22847.409140 -11145.998872      0.086078                    
EOF
